CONNECTA T1.1
1 52739U 22057H   25322.90457048  .00156438  00000+0  88663-3 0  9993
2 52739  97.6204 114.8861 0000766  51.3385 308.7949 15.78615067194469
